[
  {
    "OBJECT_NAME": "STARLINK-32493",
    "OBJECT_ID": "24213T",
    "EPOCH": "2025-11-11T06:56:16.378080",
    "MEAN_MOTION": 15.30207871,
    "ECCENTRICITY": 6.58e-05,
    "INCLINATION": 53.1581,
    "RA_OF_ASC_NODE": 358.3345,
    "ARG_OF_PERICENTER": 148.5679,
    "MEAN_ANOMALY": 211.5361,
    "EPHEMERIS_TYPE": 0,
    "CLASSIFICATION_TYPE": "U",
    "NORAD_CAT_ID": 62025,
    "ELEMENT_SET_NO": 999,
    "REV_AT_EPOCH": 5502,
    "BSTAR": 0.0005628100000000001,
    "MEAN_MOTION_DOT": 0.00016351,
    "MEAN_MOTION_DDOT": 0.0,
    "TLE_LINE1": "1 62025U 24213T   25315.28907845  .00016351  00000+0  56281-3 0  9996",
    "TLE_LINE2": "2 62025  53.1581 358.3345 0000658 148.5679 211.5361 15.30207871 55025",
    "COMMENT": "Grouped by shell and plane from TLE"
  },
  {
    "OBJECT_NAME": "STARLINK-32561",
    "OBJECT_ID": "24213U",
    "EPOCH": "2025-11-11T03:10:10.921440",
    "MEAN_MOTION": 15.30229797,
    "ECCENTRICITY": 0.0001474,
    "INCLINATION": 53.1609,
    "RA_OF_ASC_NODE": 358.7757,
    "ARG_OF_PERICENTER": 95.1048,
    "MEAN_ANOMALY": 265.0121,
    "EPHEMERIS_TYPE": 0,
    "CLASSIFICATION_TYPE": "U",
    "NORAD_CAT_ID": 62026,
    "ELEMENT_SET_NO": 999,
    "REV_AT_EPOCH": 5500,
    "BSTAR": 0.0011874,
    "MEAN_MOTION_DOT": 0.00035007,
    "MEAN_MOTION_DDOT": 0.0,
    "TLE_LINE1": "1 62026U 24213U   25315.13207085  .00035007  00000+0  11874-2 0  9997",
    "TLE_LINE2": "2 62026  53.1609 358.7757 0001474  95.1048 265.0121 15.30229797 55009",
    "COMMENT": "Grouped by shell and plane from TLE"
  },
  {
    "OBJECT_NAME": "STARLINK-32512",
    "OBJECT_ID": "24213V",
    "EPOCH": "2025-11-11T07:29:33.063072",
    "MEAN_MOTION": 15.30184167,
    "ECCENTRICITY": 0.0001435,
    "INCLINATION": 53.1626,
    "RA_OF_ASC_NODE": 357.7681,
    "ARG_OF_PERICENTER": 56.1397,
    "MEAN_ANOMALY": 303.974,
    "EPHEMERIS_TYPE": 0,
    "CLASSIFICATION_TYPE": "U",
    "NORAD_CAT_ID": 62027,
    "ELEMENT_SET_NO": 999,
    "REV_AT_EPOCH": 5503,
    "BSTAR": 0.001271,
    "MEAN_MOTION_DOT": 0.00037456,
    "MEAN_MOTION_DDOT": 0.0,
    "TLE_LINE1": "1 62027U 24213V   25315.31218823  .00037456  00000+0  12710-2 0  9990",
    "TLE_LINE2": "2 62027  53.1626 357.7681 0001435  56.1397 303.9740 15.30184167 55038",
    "COMMENT": "Grouped by shell and plane from TLE"
  },
  {
    "OBJECT_NAME": "STARLINK-33760",
    "OBJECT_ID": "25089P",
    "EPOCH": "2025-11-11T03:03:44.801568",
    "MEAN_MOTION": 15.27571704,
    "ECCENTRICITY": 0.0001944,
    "INCLINATION": 42.9989,
    "RA_OF_ASC_NODE": 354.9287,
    "ARG_OF_PERICENTER": 279.676,
    "MEAN_ANOMALY": 80.3871,
    "EPHEMERIS_TYPE": 0,
    "CLASSIFICATION_TYPE": "U",
    "NORAD_CAT_ID": 63764,
    "ELEMENT_SET_NO": 999,
    "REV_AT_EPOCH": 3082,
    "BSTAR": 0.0018465,
    "MEAN_MOTION_DOT": 0.00050888,
    "MEAN_MOTION_DDOT": 0.0,
    "TLE_LINE1": "1 63764U 25089P   25315.12760187  .00050888  00000+0  18465-2 0  9992",
    "TLE_LINE2": "2 63764  42.9989 354.9287 0001944 279.6760  80.3871 15.27571704 30821",
    "COMMENT": "Grouped by shell and plane from TLE"
  },
  {
    "OBJECT_NAME": "STARLINK-33941",
    "OBJECT_ID": "25089Q",
    "EPOCH": "2025-11-11T04:41:33.462816",
    "MEAN_MOTION": 15.2760415,
    "ECCENTRICITY": 0.0001252,
    "INCLINATION": 43.0028,
    "RA_OF_ASC_NODE": 354.5797,
    "ARG_OF_PERICENTER": 228.973,
    "MEAN_ANOMALY": 131.1013,
    "EPHEMERIS_TYPE": 0,
    "CLASSIFICATION_TYPE": "U",
    "NORAD_CAT_ID": 63765,
    "ELEMENT_SET_NO": 999,
    "REV_AT_EPOCH": 3082,
    "BSTAR": 0.0012411,
    "MEAN_MOTION_DOT": 0.00034073,
    "MEAN_MOTION_DDOT": 0.0,
    "TLE_LINE1": "1 63765U 25089Q   25315.19552619  .00034073  00000+0  12411-2 0  9992",
    "TLE_LINE2": "2 63765  43.0028 354.5797 0001252 228.9730 131.1013 15.27604150 30821",
    "COMMENT": "Grouped by shell and plane from TLE"
  },
  {
    "OBJECT_NAME": "STARLINK-33824",
    "OBJECT_ID": "25089R",
    "EPOCH": "2025-11-11T03:31:28.983936",
    "MEAN_MOTION": 15.27626475,
    "ECCENTRICITY": 3.39e-05,
    "INCLINATION": 42.9966,
    "RA_OF_ASC_NODE": 355.083,
    "ARG_OF_PERICENTER": 36.5936,
    "MEAN_ANOMALY": 323.4939,
    "EPHEMERIS_TYPE": 0,
    "CLASSIFICATION_TYPE": "U",
    "NORAD_CAT_ID": 63766,
    "ELEMENT_SET_NO": 999,
    "REV_AT_EPOCH": 3082,
    "BSTAR": 0.001229,
    "MEAN_MOTION_DOT": 0.00033761,
    "MEAN_MOTION_DDOT": 0.0,
    "TLE_LINE1": "1 63766U 25089R   25315.14686324  .00033761  00000+0  12290-2 0  9997",
    "TLE_LINE2": "2 63766  42.9966 355.0830 0000339  36.5936 323.4939 15.27626475 30828",
    "COMMENT": "Grouped by shell and plane from TLE"
  },
  {
    "OBJECT_NAME": "STARLINK-33808",
    "OBJECT_ID": "25089S",
    "EPOCH": "2025-11-11T02:50:45.933216",
    "MEAN_MOTION": 15.2763854,
    "ECCENTRICITY": 0.0002385,
    "INCLINATION": 43.0015,
    "RA_OF_ASC_NODE": 354.8635,
    "ARG_OF_PERICENTER": 273.561,
    "MEAN_ANOMALY": 86.4969,
    "EPHEMERIS_TYPE": 0,
    "CLASSIFICATION_TYPE": "U",
    "NORAD_CAT_ID": 63767,
    "ELEMENT_SET_NO": 999,
    "REV_AT_EPOCH": 3082,
    "BSTAR": 0.0020226,
    "MEAN_MOTION_DOT": 0.00055921,
    "MEAN_MOTION_DDOT": 0.0,
    "TLE_LINE1": "1 63767U 25089S   25315.11858719  .00055921  00000+0  20226-2 0  9994",
    "TLE_LINE2": "2 63767  43.0015 354.8635 0002385 273.5610  86.4969 15.27638540 30826",
    "COMMENT": "Grouped by shell and plane from TLE"
  },
  {
    "OBJECT_NAME": "STARLINK-33844",
    "OBJECT_ID": "25089T",
    "EPOCH": "2025-11-11T03:57:09.912384",
    "MEAN_MOTION": 15.27618197,
    "ECCENTRICITY": 5.85e-05,
    "INCLINATION": 42.9978,
    "RA_OF_ASC_NODE": 354.3476,
    "ARG_OF_PERICENTER": 53.6683,
    "MEAN_ANOMALY": 306.4222,
    "EPHEMERIS_TYPE": 0,
    "CLASSIFICATION_TYPE": "U",
    "NORAD_CAT_ID": 63768,
    "ELEMENT_SET_NO": 999,
    "REV_AT_EPOCH": 3083,
    "BSTAR": 0.0015154,
    "MEAN_MOTION_DOT": 0.00041725,
    "MEAN_MOTION_DDOT": 0.0,
    "TLE_LINE1": "1 63768U 25089T   25315.16469806  .00041725  00000+0  15154-2 0  9996",
    "TLE_LINE2": "2 63768  42.9978 354.3476 0000585  53.6683 306.4222 15.27618197 30832",
    "COMMENT": "Grouped by shell and plane from TLE"
  },
  {
    "OBJECT_NAME": "STARLINK-33907",
    "OBJECT_ID": "25089U",
    "EPOCH": "2025-11-10T12:50:44.882016",
    "MEAN_MOTION": 15.27622544,
    "ECCENTRICITY": 0.0001124,
    "INCLINATION": 43.0007,
    "RA_OF_ASC_NODE": 358.2236,
    "ARG_OF_PERICENTER": 266.8862,
    "MEAN_ANOMALY": 93.1861,
    "EPHEMERIS_TYPE": 0,
    "CLASSIFICATION_TYPE": "U",
    "NORAD_CAT_ID": 63769,
    "ELEMENT_SET_NO": 999,
    "REV_AT_EPOCH": 3068,
    "BSTAR": 0.0017707999999999999,
    "MEAN_MOTION_DOT": 0.00048852,
    "MEAN_MOTION_DDOT": 0.0,
    "TLE_LINE1": "1 63769U 25089U   25314.53524169  .00048852  00000+0  17708-2 0  9996",
    "TLE_LINE2": "2 63769  43.0007 358.2236 0001124 266.8862  93.1861 15.27622544 30685",
    "COMMENT": "Grouped by shell and plane from TLE"
  },
  {
    "OBJECT_NAME": "STARLINK-33884",
    "OBJECT_ID": "25089V",
    "EPOCH": "2025-11-11T03:59:00.940704",
    "MEAN_MOTION": 15.27608154,
    "ECCENTRICITY": 5.72e-05,
    "INCLINATION": 42.9978,
    "RA_OF_ASC_NODE": 354.3564,
    "ARG_OF_PERICENTER": 42.2139,
    "MEAN_ANOMALY": 317.8757,
    "EPHEMERIS_TYPE": 0,
    "CLASSIFICATION_TYPE": "U",
    "NORAD_CAT_ID": 63770,
    "ELEMENT_SET_NO": 999,
    "REV_AT_EPOCH": 3078,
    "BSTAR": 0.0012373,
    "MEAN_MOTION_DOT": 0.00033973,
    "MEAN_MOTION_DDOT": 0.0,
    "TLE_LINE1": "1 63770U 25089V   25315.16598311  .00033973  00000+0  12373-2 0  9999",
    "TLE_LINE2": "2 63770  42.9978 354.3564 0000572  42.2139 317.8757 15.27608154 30784",
    "COMMENT": "Grouped by shell and plane from TLE"
  },
  {
    "OBJECT_NAME": "STARLINK-33841",
    "OBJECT_ID": "25089W",
    "EPOCH": "2025-11-11T04:10:06.760704",
    "MEAN_MOTION": 15.27604072,
    "ECCENTRICITY": 0.0001104,
    "INCLINATION": 42.9999,
    "RA_OF_ASC_NODE": 354.4136,
    "ARG_OF_PERICENTER": 252.1909,
    "MEAN_ANOMALY": 107.8823,
    "EPHEMERIS_TYPE": 0,
    "CLASSIFICATION_TYPE": "U",
    "NORAD_CAT_ID": 63771,
    "ELEMENT_SET_NO": 999,
    "REV_AT_EPOCH": 3078,
    "BSTAR": 0.001091,
    "MEAN_MOTION_DOT": 0.00029904,
    "MEAN_MOTION_DDOT": 0.0,
    "TLE_LINE1": "1 63771U 25089W   25315.17368936  .00029904  00000+0  10910-2 0  9993",
    "TLE_LINE2": "2 63771  42.9999 354.4136 0001104 252.1909 107.8823 15.27604072 30789",
    "COMMENT": "Grouped by shell and plane from TLE"
  },
  {
    "OBJECT_NAME": "STARLINK-33769",
    "OBJECT_ID": "25089X",
    "EPOCH": "2025-11-11T03:55:18.674976",
    "MEAN_MOTION": 15.27589222,
    "ECCENTRICITY": 8.7e-05,
    "INCLINATION": 43.002,
    "RA_OF_ASC_NODE": 354.3337,
    "ARG_OF_PERICENTER": 258.9313,
    "MEAN_ANOMALY": 101.1441,
    "EPHEMERIS_TYPE": 0,
    "CLASSIFICATION_TYPE": "U",
    "NORAD_CAT_ID": 63773,
    "ELEMENT_SET_NO": 999,
    "REV_AT_EPOCH": 3082,
    "BSTAR": 0.0013853,
    "MEAN_MOTION_DOT": 0.00038066,
    "MEAN_MOTION_DDOT": 0.0,
    "TLE_LINE1": "1 63773U 25089X   25315.16341059  .00038066  00000+0  13853-2 0  9999",
    "TLE_LINE2": "2 63773  43.0020 354.3337 0000870 258.9313 101.1441 15.27589222 30829",
    "COMMENT": "Grouped by shell and plane from TLE"
  },
  {
    "OBJECT_NAME": "STARLINK-33914",
    "OBJECT_ID": "25089Y",
    "EPOCH": "2025-11-11T03:37:29.811072",
    "MEAN_MOTION": 15.27610208,
    "ECCENTRICITY": 0.0002745,
    "INCLINATION": 43.0021,
    "RA_OF_ASC_NODE": 350.741,
    "ARG_OF_PERICENTER": 287.6205,
    "MEAN_ANOMALY": 72.4347,
    "EPHEMERIS_TYPE": 0,
    "CLASSIFICATION_TYPE": "U",
    "NORAD_CAT_ID": 63774,
    "ELEMENT_SET_NO": 999,
    "REV_AT_EPOCH": 3087,
    "BSTAR": 0.0017525,
    "MEAN_MOTION_DOT": 0.00048327,
    "MEAN_MOTION_DDOT": 0.0,
    "TLE_LINE1": "1 63774U 25089Y   25315.15103948  .00048327  00000+0  17525-2 0  9993",
    "TLE_LINE2": "2 63774  43.0021 350.7410 0002745 287.6205  72.4347 15.27610208 30874",
    "COMMENT": "Grouped by shell and plane from TLE"
  }
]